[{"OBJECT_NAME":"STARLINK-31675","OBJECT_ID":"2024-074Q","EPOCH":"2026-03-09T03:36:08.398944","MEAN_MOTION":15.27570707,"ECCENTRICITY":9.13e-6,"INCLINATION":43.002,"RA_OF_ASC_NODE":346.4129,"ARG_OF_PERICENTER":29.6362,"MEAN_ANOMALY":330.4495,"EPHEMERIS_TYPE":0,"CLASSIFICATION_TYPE":"U","NORAD_CAT_ID":59548,"ELEMENT_SET_NO":999,"REV_AT_EPOCH":10593,"BSTAR":-0.00011532771,"MEAN_MOTION_DOT":-3.433e-5,"MEAN_MOTION_DDOT":0},{"OBJECT_NAME":"BLUEBON","OBJECT_ID":"2025-009CH","EPOCH":"2026-03-09T16:52:33.225312","MEAN_MOTION":15.29047254,"ECCENTRICITY":0.00011933,"INCLINATION":97.4017,"RA_OF_ASC_NODE":152.2033,"ARG_OF_PERICENTER":43.39,"MEAN_ANOMALY":316.7434,"EPHEMERIS_TYPE":0,"CLASSIFICATION_TYPE":"U","NORAD_CAT_ID":62688,"ELEMENT_SET_NO":999,"REV_AT_EPOCH":6376,"BSTAR":0.00037313027,"MEAN_MOTION_DOT":0.00010452,"MEAN_MOTION_DDOT":0}]
